start=new Date('2022-09-06T00:00:00.000Z').valueOf();
sats=[{"REV_AT_EPOCH":"4331","NORAD_CAT_ID":"50163","PERIOD":"95.437","MEAN_ANOMALY":"307.3252","REF_FRAME":"TEME","OBJECT_ID":"2021-125H","EPHEMERIS_TYPE":"0","SEMIMAJOR_AXIS":"6917.844","OBJECT_NAME":"STARLINK-3306","TIME_SYSTEM":"UTC","LAUNCH_DATE":"2021-12-18","CENTER_NAME":"EARTH","GP_ID":"211804726","DECAY_DATE":null,"TLE_LINE1":"1 50163U 21125H   22248.47439556  .00000747  00000-0  64987-4 0  9993","RA_OF_ASC_NODE":"230.7124","ARG_OF_PERICENTER":"52.7922","SITE":"AFWTR","PERIAPSIS":"538.329","FILE":"3559490","EPOCH":"2022-09-05T11:23:07.776384","ELEMENT_SET_NO":"999","MEAN_MOTION_DOT":"0.00000747","MEAN_MOTION_DDOT":"0.0000000000000","APOAPSIS":"541.090","ECCENTRICITY":"0.00019960","MEAN_MOTION":"15.08851769","CLASSIFICATION_TYPE":"U","RCS_SIZE":"LARGE","MEAN_ELEMENT_THEORY":"SGP4","COUNTRY_CODE":"US","OBJECT_TYPE":"PAYLOAD","INCLINATION":"53.2167","BSTAR":"0.00006498700000","TLE_LINE2":"2 50163  53.2167 230.7124 0001996  52.7922 307.3252 15.08851769 43315"},{"SITE":"AFWTR","EPOCH":"2022-09-05T09:49:01.101792","ELEMENT_SET_NO":"999","FILE":"3559698","PERIAPSIS":"538.407","ARG_OF_PERICENTER":"59.0208","INCLINATION":"53.2167","OBJECT_TYPE":"PAYLOAD","BSTAR":"0.00008448500000","TLE_LINE2":"2 50165  53.2167 251.0226 0001887  59.0208 301.0969 15.08850853 39945","APOAPSIS":"541.018","MEAN_MOTION":"15.08850853","ECCENTRICITY":"0.00018870","MEAN_MOTION_DDOT":"0.0000000000000","MEAN_MOTION_DOT":"0.00001057","COUNTRY_CODE":"US","MEAN_ELEMENT_THEORY":"SGP4","RCS_SIZE":"LARGE","CLASSIFICATION_TYPE":"U","NORAD_CAT_ID":"50165","MEAN_ANOMALY":"301.0969","PERIOD":"95.437","REV_AT_EPOCH":"3994","GP_ID":"211811595","CENTER_NAME":"EARTH","TIME_SYSTEM":"UTC","LAUNCH_DATE":"2021-12-18","RA_OF_ASC_NODE":"251.0226","TLE_LINE1":"1 50165U 21125K   22248.40904053  .00001057  00000-0  84485-4 0  9997","DECAY_DATE":null,"SEMIMAJOR_AXIS":"6917.847","EPHEMERIS_TYPE":"0","OBJECT_ID":"2021-125K","REF_FRAME":"TEME","OBJECT_NAME":"STARLINK-3298"},{"OBJECT_NAME":"STARLINK-3305","EPHEMERIS_TYPE":"0","OBJECT_ID":"2021-125L","REF_FRAME":"TEME","SEMIMAJOR_AXIS":"6917.864","DECAY_DATE":null,"RA_OF_ASC_NODE":"241.2041","TLE_LINE1":"1 50166U 21125L   22248.36580256  .00000155  00000-0  27850-4 0  9999","LAUNCH_DATE":"2021-12-18","TIME_SYSTEM":"UTC","GP_ID":"211811197","CENTER_NAME":"EARTH","REV_AT_EPOCH":"4007","PERIOD":"95.437","MEAN_ANOMALY":"315.1485","NORAD_CAT_ID":"50166","MEAN_ELEMENT_THEORY":"SGP4","CLASSIFICATION_TYPE":"U","RCS_SIZE":"LARGE","COUNTRY_CODE":"US","MEAN_MOTION_DDOT":"0.0000000000000","MEAN_MOTION_DOT":"0.00000155","MEAN_MOTION":"15.08845363","APOAPSIS":"541.369","ECCENTRICITY":"0.00023710","BSTAR":"0.00002785000000","TLE_LINE2":"2 50166  53.2151 241.2041 0002371  44.9698 315.1485 15.08845363 40075","INCLINATION":"53.2151","OBJECT_TYPE":"PAYLOAD","ARG_OF_PERICENTER":"44.9698","FILE":"3559701","PERIAPSIS":"538.089","ELEMENT_SET_NO":"999","EPOCH":"2022-09-05T08:46:45.341184","SITE":"AFWTR"},{"RA_OF_ASC_NODE":"251.0556","TLE_LINE1":"1 50167U 21125M   22248.40168948  .00001525  00000-0  11392-3 0  9990","DECAY_DATE":null,"GP_ID":"211777544","CENTER_NAME":"EARTH","TIME_SYSTEM":"UTC","LAUNCH_DATE":"2021-12-18","OBJECT_NAME":"STARLINK-3271","SEMIMAJOR_AXIS":"6917.876","EPHEMERIS_TYPE":"0","OBJECT_ID":"2021-125M","REF_FRAME":"TEME","MEAN_ANOMALY":"297.4155","PERIOD":"95.437","NORAD_CAT_ID":"50167","REV_AT_EPOCH":"4254","BSTAR":"0.00011392000000","TLE_LINE2":"2 50167  53.2178 251.0556 0001746  62.7015 297.4155 15.08841371 42546","INCLINATION":"53.2178","OBJECT_TYPE":"PAYLOAD","COUNTRY_CODE":"US","MEAN_ELEMENT_THEORY":"SGP4","CLASSIFICATION_TYPE":"U","RCS_SIZE":"LARGE","APOAPSIS":"540.949","ECCENTRICITY":"0.00017460","MEAN_MOTION":"15.08841371","MEAN_MOTION_DDOT":"0.0000000000000","MEAN_MOTION_DOT":"0.00001525","ELEMENT_SET_NO":"999","EPOCH":"2022-09-05T09:38:25.971072","FILE":"3559367","PERIAPSIS":"538.533","SITE":"AFWTR","ARG_OF_PERICENTER":"62.7015"},{"SEMIMAJOR_AXIS":"6917.821","EPHEMERIS_TYPE":"0","OBJECT_ID":"2021-125N","REF_FRAME":"TEME","OBJECT_NAME":"STARLINK-3296","GP_ID":"211805226","CENTER_NAME":"EARTH","LAUNCH_DATE":"2021-12-18","TIME_SYSTEM":"UTC","RA_OF_ASC_NODE":"241.2219","TLE_LINE1":"1 50168U 21125N   22248.36213205  .00002649  00000-0  18437-3 0  9998","DECAY_DATE":null,"REV_AT_EPOCH":"4316","NORAD_CAT_ID":"50168","MEAN_ANOMALY":"310.8711","PERIOD":"95.436","MEAN_MOTION":"15.08859546","APOAPSIS":"541.100","ECCENTRICITY":"0.00020440","MEAN_MOTION_DDOT":"0.0000000000000","MEAN_MOTION_DOT":"0.00002649","COUNTRY_CODE":"US","MEAN_ELEMENT_THEORY":"SGP4","CLASSIFICATION_TYPE":"U","RCS_SIZE":"LARGE","INCLINATION":"53.2152","OBJECT_TYPE":"PAYLOAD","TLE_LINE2":"2 50168  53.2152 241.2219 0002044  49.2458 310.8711 15.08859546 43169","BSTAR":"0.00018437000000","ARG_OF_PERICENTER":"49.2458","SITE":"AFWTR","EPOCH":"2022-09-05T08:41:28.209120","ELEMENT_SET_NO":"999","PERIAPSIS":"538.272","FILE":"3559490"},{"INCLINATION":"53.2137","OBJECT_TYPE":"PAYLOAD","TLE_LINE2":"2 50169  53.2137 241.0714 0002371  48.4596 311.6599 15.08852457 43176","BSTAR":"0.00015427000000","MEAN_MOTION_DDOT":"0.0000000000000","MEAN_MOTION_DOT":"0.00002169","MEAN_MOTION":"15.08852457","APOAPSIS":"541.348","ECCENTRICITY":"0.00023710","MEAN_ELEMENT_THEORY":"SGP4","CLASSIFICATION_TYPE":"U","RCS_SIZE":"LARGE","COUNTRY_CODE":"US","SITE":"AFWTR","PERIAPSIS":"538.067","FILE":"3559490","ELEMENT_SET_NO":"999","EPOCH":"2022-09-05T09:34:28.008192","ARG_OF_PERICENTER":"48.4596","LAUNCH_DATE":"2021-12-18","TIME_SYSTEM":"UTC","GP_ID":"211803982","CENTER_NAME":"EARTH","DECAY_DATE":null,"RA_OF_ASC_NODE":"241.0714","TLE_LINE1":"1 50169U 21125P   22248.39893528  .00002169  00000-0  15427-3 0  9997","EPHEMERIS_TYPE":"0","OBJECT_ID":"2021-125P","REF_FRAME":"TEME","SEMIMAJOR_AXIS":"6917.842","OBJECT_NAME":"STARLINK-3301","NORAD_CAT_ID":"50169","PERIOD":"95.437","MEAN_ANOMALY":"311.6599","REV_AT_EPOCH":"4317"},{"TLE_LINE2":"2 50170  53.2174 241.5518 0002234  50.4701 309.6488 15.08845420 43148","BSTAR":"0.00006383300000","INCLINATION":"53.2174","OBJECT_TYPE":"PAYLOAD","COUNTRY_CODE":"US","MEAN_ELEMENT_THEORY":"SGP4","CLASSIFICATION_TYPE":"U","RCS_SIZE":"LARGE","APOAPSIS":"541.274","MEAN_MOTION":"15.08845420","ECCENTRICITY":"0.00022340","MEAN_MOTION_DDOT":"0.0000000000000","MEAN_MOTION_DOT":"0.00000728","ELEMENT_SET_NO":"999","EPOCH":"2022-09-05T06:55:28.405344","FILE":"3559490","PERIAPSIS":"538.183","SITE":"AFWTR","ARG_OF_PERICENTER":"50.4701","RA_OF_ASC_NODE":"241.5518","TLE_LINE1":"1 50170U 21125Q   22248.28852321  .00000728  00000-0  63833-4 0  9997","DECAY_DATE":null,"GP_ID":"211803732","CENTER_NAME":"EARTH","LAUNCH_DATE":"2021-12-18","TIME_SYSTEM":"UTC","OBJECT_NAME":"STARLINK-3245","SEMIMAJOR_AXIS":"6917.864","EPHEMERIS_TYPE":"0","REF_FRAME":"TEME","OBJECT_ID":"2021-125Q","MEAN_ANOMALY":"309.6488","PERIOD":"95.437","NORAD_CAT_ID":"50170","REV_AT_EPOCH":"4314"},{"OBJECT_NAME":"STARLINK-3286","EPHEMERIS_TYPE":"0","OBJECT_ID":"2021-125R","REF_FRAME":"TEME","SEMIMAJOR_AXIS":"6917.859","DECAY_DATE":null,"RA_OF_ASC_NODE":"241.4889","TLE_LINE1":"1 50171U 21125R   22248.30324800  .00000516  00000-0  50497-4 0  9994","TIME_SYSTEM":"UTC","LAUNCH_DATE":"2021-12-18","GP_ID":"211804484","CENTER_NAME":"EARTH","REV_AT_EPOCH":"4315","PERIOD":"95.437","MEAN_ANOMALY":"311.6288","NORAD_CAT_ID":"50171","MEAN_ELEMENT_THEORY":"SGP4","CLASSIFICATION_TYPE":"U","RCS_SIZE":"LARGE","COUNTRY_CODE":"US","MEAN_MOTION_DDOT":"0.0000000000000","MEAN_MOTION_DOT":"0.00000516","ECCENTRICITY":"0.00021340","APOAPSIS":"541.201","MEAN_MOTION":"15.08846873","TLE_LINE2":"2 50171  53.2170 241.4889 0002134  48.4887 311.6288 15.08846873 43151","BSTAR":"0.00005049700000","INCLINATION":"53.2170","OBJECT_TYPE":"PAYLOAD","ARG_OF_PERICENTER":"48.4887","FILE":"3559490","PERIAPSIS":"538.248","ELEMENT_SET_NO":"999","EPOCH":"2022-09-05T07:16:40.627200","SITE":"AFWTR"},{"EPHEMERIS_TYPE":"0","OBJECT_ID":"2021-125S","REF_FRAME":"TEME","SEMIMAJOR_AXIS":"6917.866","OBJECT_NAME":"STARLINK-3287","LAUNCH_DATE":"2021-12-18","TIME_SYSTEM":"UTC","GP_ID":"211804727","CENTER_NAME":"EARTH","DECAY_DATE":null,"RA_OF_ASC_NODE":"241.0064","TLE_LINE1":"1 50172U 21125S   22248.41364376 -.00000501  00000-0 -13386-4 0  9991","REV_AT_EPOCH":"4320","NORAD_CAT_ID":"50172","PERIOD":"95.437","MEAN_ANOMALY":"294.1841","MEAN_MOTION_DDOT":"0.0000000000000","MEAN_MOTION_DOT":"-0.00000501","APOAPSIS":"541.004","MEAN_MOTION":"15.08844670","ECCENTRICITY":"0.00018400","MEAN_ELEMENT_THEORY":"SGP4","CLASSIFICATION_TYPE":"U","RCS_SIZE":"LARGE","COUNTRY_CODE":"US","INCLINATION":"53.2165","OBJECT_TYPE":"PAYLOAD","TLE_LINE2":"2 50172  53.2165 241.0064 0001840  65.9344 294.1841 15.08844670 43201","BSTAR":"-0.00001338600000","ARG_OF_PERICENTER":"65.9344","SITE":"AFWTR","FILE":"3559490","PERIAPSIS":"538.458","ELEMENT_SET_NO":"999","EPOCH":"2022-09-05T09:55:38.820864"},{"NORAD_CAT_ID":"50173","MEAN_ANOMALY":"134.2107","PERIOD":"95.437","REV_AT_EPOCH":"4331","GP_ID":"211803483","CENTER_NAME":"EARTH","TIME_SYSTEM":"UTC","LAUNCH_DATE":"2021-12-18","RA_OF_ASC_NODE":"231.1669","TLE_LINE1":"1 50173U 21125T   22248.37502983  .00000788  00000-0  67595-4 0  9991","DECAY_DATE":null,"SEMIMAJOR_AXIS":"6917.859","EPHEMERIS_TYPE":"0","OBJECT_ID":"2021-125T","REF_FRAME":"TEME","OBJECT_NAME":"STARLINK-3289","SITE":"AFWTR","ELEMENT_SET_NO":"999","EPOCH":"2022-09-05T09:00:02.577312","PERIAPSIS":"537.980","FILE":"3559490","ARG_OF_PERICENTER":"225.8678","INCLINATION":"53.2188","OBJECT_TYPE":"PAYLOAD","TLE_LINE2":"2 50173  53.2188 231.1669 0002521 225.8678 134.2107 15.08846891 43310","BSTAR":"0.00006759500000","APOAPSIS":"541.468","MEAN_MOTION":"15.08846891","ECCENTRICITY":"0.00025210","MEAN_MOTION_DDOT":"0.0000000000000","MEAN_MOTION_DOT":"0.00000788","COUNTRY_CODE":"US","MEAN_ELEMENT_THEORY":"SGP4","CLASSIFICATION_TYPE":"U","RCS_SIZE":"LARGE"}];
